{"type": "FeatureCollection", "features": [ {"type": "Feature", "properties": {"norad_id": 33867, "name": "IRIDIUM 33 DEB", "group": "iridium-33-debris", "lat": 50.98278563880696, "lon": 159.9168549351589, "alt_km": 252.3592225501834, "timestamp": "2025-12-23T11:34:48.545749+00:00", "meta": {"OBJECT_NAME": "IRIDIUM 33 DEB", "OBJECT_ID": "1997-051AL", "EPOCH": "2025-12-22T23:02:25.740960", "MEAN_MOTION": 15.97980336, "ECCENTRICITY": 0.0012699, "INCLINATION": 86.3647, "RA_OF_ASC_NODE": 344.7018, "ARG_OF_PERICENTER": 106.1209, "MEAN_ANOMALY": 254.1476, "EPHEMERIS_TYPE": 0, "CLASSIFICATION_TYPE": "U", "NORAD_CAT_ID": 33867, "ELEMENT_SET_NO": 999, "REV_AT_EPOCH": 89672, "BSTAR": 0.0099961, "MEAN_MOTION_DOT": 0.03779635, "MEAN_MOTION_DDOT": 0.018529}, "tle": {"line1": "1 33867U 97051AL  25356.96002015  .03779635  18529-1  99961-2 0  9995", "line2": "2 33867  86.3647 344.7018 0012699 106.1209 254.1476 15.97980336896728"}}, "geometry": {"type": "Point", "coordinates": [159.9168549351589, 50.98278563880696]}}, {"type": "Feature", "properties": {"norad_id": 33870, "name": "IRIDIUM 33 DEB", "group": "iridium-33-debris", "lat": 47.93187362510187, "lon": 57.68520135394783, "alt_km": 736.4264207461911, "timestamp": "2025-12-23T11:34:48.545758+00:00", "meta": {"OBJECT_NAME": "IRIDIUM 33 DEB", "OBJECT_ID": "1997-051AP", "EPOCH": "2025-12-22T16:01:21.825408", "MEAN_MOTION": 14.45898078, "ECCENTRICITY": 0.00224522, "INCLINATION": 86.3736, "RA_OF_ASC_NODE": 54.0053, "ARG_OF_PERICENTER": 146.535, "MEAN_ANOMALY": 342.8525, "EPHEMERIS_TYPE": 0, "CLASSIFICATION_TYPE": "U", "NORAD_CAT_ID": 33870, "ELEMENT_SET_NO": 999, "REV_AT_EPOCH": 88280, "BSTAR": 0.00065938146, "MEAN_MOTION_DOT": 2.37e-05, "MEAN_MOTION_DDOT": 0}, "tle": {"line1": "1 33870U 97051AP  25356.66761372  .00002370  00000+0  65938-3 0  9997", "line2": "2 33870  86.3736  54.0053 0022452 146.5350 342.8525 14.45898078882801"}}, "geometry": {"type": "Point", "coordinates": [57.68520135394783, 47.93187362510187]}}, {"type": "Feature", "properties": {"norad_id": 33881, "name": "IRIDIUM 33 DEB", "group": "iridium-33-debris", "lat": -26.927755277120735, "lon": 100.23484088305388, "alt_km": 751.6953603967659, "timestamp": "2025-12-23T11:34:48.545768+00:00", "meta": {"OBJECT_NAME": "IRIDIUM 33 DEB", "OBJECT_ID": "1997-051BA", "EPOCH": "2025-12-22T19:48:34.710336", "MEAN_MOTION": 14.56741878, "ECCENTRICITY": 0.00612167, "INCLINATION": 86.3868, "RA_OF_ASC_NODE": 102.3597, "ARG_OF_PERICENTER": 142.0862, "MEAN_ANOMALY": 347.3767, "EPHEMERIS_TYPE": 0, "CLASSIFICATION_TYPE": "U", "NORAD_CAT_ID": 33881, "ELEMENT_SET_NO": 999, "REV_AT_EPOCH": 87647, "BSTAR": 0.0020565617, "MEAN_MOTION_DOT": 9.456e-05, "MEAN_MOTION_DDOT": 0}, "tle": {"line1": "1 33881U 97051BA  25356.82540174  .00009456  00000+0  20566-2 0  9991", "line2": "2 33881  86.3868 102.3597 0061216 142.0862 347.3767 14.56741878876470"}}, "geometry": {"type": "Point", "coordinates": [100.23484088305388, -26.927755277120735]}}, {"type": "Feature", "properties": {"norad_id": 33884, "name": "IRIDIUM 33 DEB", "group": "iridium-33-debris", "lat": 5.5772025886301915, "lon": 5.323272734808365, "alt_km": 638.5017786042845, "timestamp": "2025-12-23T11:34:48.545779+00:00", "meta": {"OBJECT_NAME": "IRIDIUM 33 DEB", "OBJECT_ID": "1997-051BD", "EPOCH": "2025-12-21T19:42:17.168256", "MEAN_MOTION": 14.77591703, "ECCENTRICITY": 0.00089767, "INCLINATION": 86.3691, "RA_OF_ASC_NODE": 5.7181, "ARG_OF_PERICENTER": 287.8241, "MEAN_ANOMALY": 245.5748, "EPHEMERIS_TYPE": 0, "CLASSIFICATION_TYPE": "U", "NORAD_CAT_ID": 33884, "ELEMENT_SET_NO": 999, "REV_AT_EPOCH": 88981, "BSTAR": 0.0012315655, "MEAN_MOTION_DOT": 8.831e-05, "MEAN_MOTION_DDOT": 0}, "tle": {"line1": "1 33884U 97051BD  25355.82103204  .00008831  00000+0  12316-2 0  9992", "line2": "2 33884  86.3691   5.7181 0008976 287.8241 245.5748 14.77591703889818"}}, "geometry": {"type": "Point", "coordinates": [5.323272734808365, 5.5772025886301915]}}, {"type": "Feature", "properties": {"norad_id": 33886, "name": "IRIDIUM 33 DEB", "group": "iridium-33-debris", "lat": 50.128730396391, "lon": -121.63714569510017, "alt_km": 764.4133935249629, "timestamp": "2025-12-23T11:34:48.545789+00:00", "meta": {"OBJECT_NAME": "IRIDIUM 33 DEB", "OBJECT_ID": "1997-051BF", "EPOCH": "2025-12-22T15:26:54.804768", "MEAN_MOTION": 14.36062759, "ECCENTRICITY": 0.00132105, "INCLINATION": 86.3822, "RA_OF_ASC_NODE": 63.0599, "ARG_OF_PERICENTER": 206.3704, "MEAN_ANOMALY": 269.6473, "EPHEMERIS_TYPE": 0, "CLASSIFICATION_TYPE": "U", "NORAD_CAT_ID": 33886, "ELEMENT_SET_NO": 999, "REV_AT_EPOCH": 88194, "BSTAR": 0.00016601054, "MEAN_MOTION_DOT": 5.03e-06, "MEAN_MOTION_DDOT": 0}, "tle": {"line1": "1 33886U 97051BF  25356.64368987  .00000503  00000+0  16601-3 0  9996", "line2": "2 33886  86.3822  63.0599 0013210 206.3704 269.6473 14.36062759881940"}}, "geometry": {"type": "Point", "coordinates": [-121.63714569510017, 50.128730396391]}}, {"type": "Feature", "properties": {"norad_id": 33887, "name": "IRIDIUM 33 DEB", "group": "iridium-33-debris", "lat": 68.53446273421203, "lon": 169.30143363344706, "alt_km": 759.9886399360166, "timestamp": "2025-12-23T11:34:48.545798+00:00", "meta": {"OBJECT_NAME": "IRIDIUM 33 DEB", "OBJECT_ID": "1997-051BG", "EPOCH": "2025-12-23T01:18:50.417280", "MEAN_MOTION": 14.37229907, "ECCENTRICITY": 0.0005548, "INCLINATION": 86.3042, "RA_OF_ASC_NODE": 358.9467, "ARG_OF_PERICENTER": 186.4101, "MEAN_ANOMALY": 232.9503, "EPHEMERIS_TYPE": 0, "CLASSIFICATION_TYPE": "U", "NORAD_CAT_ID": 33887, "ELEMENT_SET_NO": 999, "REV_AT_EPOCH": 88313, "BSTAR": 0.0001399, "MEAN_MOTION_DOT": 4.36e-06, "MEAN_MOTION_DDOT": 0}, "tle": {"line1": "1 33887U 97051BG  25357.05475020  .00000436  00000+0  13990-3 0  9993", "line2": "2 33887  86.3042 358.9467 0005548 186.4101 232.9503 14.37229907883130"}}, "geometry": {"type": "Point", "coordinates": [169.30143363344706, 68.53446273421203]}}, {"type": "Feature", "properties": {"norad_id": 33953, "name": "IRIDIUM 33 DEB", "group": "iridium-33-debris", "lat": -52.59089103787122, "lon": 44.37329368032168, "alt_km": 721.8107103056682, "timestamp": "2025-12-23T11:34:48.545810+00:00", "meta": {"OBJECT_NAME": "IRIDIUM 33 DEB", "OBJECT_ID": "1997-051BN", "EPOCH": "2025-12-22T04:44:25.619136", "MEAN_MOTION": 14.55406947, "ECCENTRICITY": 0.00178347, "INCLINATION": 86.3836, "RA_OF_ASC_NODE": 49.6744, "ARG_OF_PERICENTER": 73.9809, "MEAN_ANOMALY": 345.1929, "EPHEMERIS_TYPE": 0, "CLASSIFICATION_TYPE": "U", "NORAD_CAT_ID": 33953, "ELEMENT_SET_NO": 999, "REV_AT_EPOCH": 88441, "BSTAR": 0.0010994661, "MEAN_MOTION_DOT": 4.805e-05, "MEAN_MOTION_DDOT": 0}, "tle": {"line1": "1 33953U 97051BN  25356.19751874  .00004805  00000+0  10995-2 0  9990", "line2": "2 33953  86.3836  49.6744 0017834  73.9809 345.1929 14.55406947884415"}}, "geometry": {"type": "Point", "coordinates": [44.37329368032168, -52.59089103787122]}}, {"type": "Feature", "properties": {"norad_id": 33960, "name": "IRIDIUM 33 DEB", "group": "iridium-33-debris", "lat": -13.50564917370546, "lon": 105.34956648605369, "alt_km": 620.5006879608572, "timestamp": "2025-12-23T11:34:48.545821+00:00", "meta": {"OBJECT_NAME": "IRIDIUM 33 DEB", "OBJECT_ID": "1997-051BV", "EPOCH": "2025-12-22T20:25:56.627904", "MEAN_MOTION": 14.85668232, "ECCENTRICITY": 0.00072159, "INCLINATION": 86.2544, "RA_OF_ASC_NODE": 284.7457, "ARG_OF_PERICENTER": 44.6643, "MEAN_ANOMALY": 15.2245, "EPHEMERIS_TYPE": 0, "CLASSIFICATION_TYPE": "U", "NORAD_CAT_ID": 33960, "ELEMENT_SET_NO": 999, "REV_AT_EPOCH": 89017, "BSTAR": 0.0029026593, "MEAN_MOTION_DOT": 0.00025254, "MEAN_MOTION_DDOT": 0}, "tle": {"line1": "1 33960U 97051BV  25356.85134986  .00025254  00000+0  29027-2 0  9997", "line2": "2 33960  86.2544 284.7457 0007215  44.6643  15.2245 14.85668232890170"}}, "geometry": {"type": "Point", "coordinates": [105.34956648605369, -13.50564917370546]}}, {"type": "Feature", "properties": {"norad_id": 33966, "name": "IRIDIUM 33 DEB", "group": "iridium-33-debris", "lat": -31.249574393117218, "lon": -136.3887121810163, "alt_km": 729.6175158719789, "timestamp": "2025-12-23T11:34:48.545830+00:00", "meta": {"OBJECT_NAME": "IRIDIUM 33 DEB", "OBJECT_ID": "1997-051CB", "EPOCH": "2025-12-23T02:27:37.612224", "MEAN_MOTION": 14.49632616, "ECCENTRICITY": 0.0008564, "INCLINATION": 86.3911, "RA_OF_ASC_NODE": 41.5796, "ARG_OF_PERICENTER": 155.8234, "MEAN_ANOMALY": 233.5422, "EPHEMERIS_TYPE": 0, "CLASSIFICATION_TYPE": "U", "NORAD_CAT_ID": 33966, "ELEMENT_SET_NO": 999, "REV_AT_EPOCH": 88592, "BSTAR": 0.00046823, "MEAN_MOTION_DOT": 1.819e-05, "MEAN_MOTION_DDOT": 0}, "tle": {"line1": "1 33966U 97051CB  25357.10251866  .00001819  00000+0  46823-3 0  9994", "line2": "2 33966  86.3911  41.5796 0008564 155.8234 233.5422 14.49632616885925"}}, "geometry": {"type": "Point", "coordinates": [-136.3887121810163, -31.249574393117218]}}, {"type": "Feature", "properties": {"norad_id": 34071, "name": "IRIDIUM 33 DEB", "group": "iridium-33-debris", "lat": -85.51832844383497, "lon": -41.484694430994914, "alt_km": 741.5270095213637, "timestamp": "2025-12-23T11:34:48.545840+00:00", "meta": {"OBJECT_NAME": "IRIDIUM 33 DEB", "OBJECT_ID": "1997-051CE", "EPOCH": "2025-12-23T00:23:08.785824", "MEAN_MOTION": 14.49508042, "ECCENTRICITY": 0.00099, "INCLINATION": 86.3448, "RA_OF_ASC_NODE": 13.3612, "ARG_OF_PERICENTER": 79.9113, "MEAN_ANOMALY": 280.3208, "EPHEMERIS_TYPE": 0, "CLASSIFICATION_TYPE": "U", "NORAD_CAT_ID": 34071, "ELEMENT_SET_NO": 999, "REV_AT_EPOCH": 88483, "BSTAR": 0.0005526, "MEAN_MOTION_DOT": 2.138e-05, "MEAN_MOTION_DDOT": 0}, "tle": {"line1": "1 34071U 97051CE  25357.01607391  .00002138  00000+0  55260-3 0  9990", "line2": "2 34071  86.3448  13.3612 0009900  79.9113 280.3208 14.49508042884835"}}, "geometry": {"type": "Point", "coordinates": [-41.484694430994914, -85.51832844383497]}}]}